NOAA 18                 
1 28654U 05018A   24327.15155976  .00000441  00000+0  25778-3 0  9996
2 28654  98.8628  42.7246 0013680 339.0493  21.0117 14.13427295  5579
